GLOBALSTAR M067         
1 32263U 07048A   25118.47389659 -.00000039  00000+0  43155-3 0  9996
2 32263  51.9713 181.3980 0001051 220.8803 242.0734 12.40671236803313
GLOBALSTAR M070         
1 32264U 07048B   25118.90754190 -.00000083  00000+0  11834-3 0  9999
2 32264  51.9749 278.6294 0000791  94.7870  69.9723 12.62317166807448
GLOBALSTAR M066         
1 32265U 07048C   25118.52800846 -.00000052  00000+0  34551-3 0  9995
2 32265  51.9625 169.2407 0002039 142.4503   8.3238 12.35103355809166
GLOBALSTAR M068         
1 32266U 07048D   25118.13299686 -.00000060  00000+0  24088-3 0  9990
2 32266  51.9872  94.8360 0001248  29.7797  50.7203 12.62822101811236
GLOBALSTAR M079         
1 37188U 10054A   25118.94779538 -.00000095  00000+0  51020-4 0  9992
2 37188  52.0038 289.6784 0000940 123.8029  44.0294 12.62273533670234
GLOBALSTAR M074         
1 37189U 10054B   25118.97626181 -.00000100  00000+0  20761-4 0  9996
2 37189  52.0017 288.9231 0000635 108.7129  67.1983 12.62274520670840
GLOBALSTAR M077         
1 37191U 10054D   25118.74542985 -.00000091  00000+0  72438-4 0  9990
2 37191  52.0066 246.6330 0000647 124.9943  22.1780 12.62273645670905
